SZ-17 MODULE            
1 59624U 23164C   24214.90874544  .00053710  00000+0  44521-3 0  9990
2 59624  41.4751 162.1057 0008985 223.9248 136.0880 15.69294954 14715
PROGRESS-MS 27          
1 59913U 24103A   24216.54165167  .00016847  00000+0  30682-3 0  9994
2 59913  51.6397  80.7274 0006051 155.0735 284.2312 15.49586958  9412
STARLINER CFT-1         
1 59968U 24109A   24216.54165167  .00016847  00000+0  30682-3 0  9990
2 59968  51.6397  80.7274 0006051 155.0735 284.2312 15.49586958  8477
